[{"OBJECT_NAME":"SUOMI NPP","OBJECT_ID":"2011-061A","EPOCH":"2026-03-09T22:54:45.266976","MEAN_MOTION":14.19543747,"ECCENTRICITY":4.741e-5,"INCLINATION":98.7869,"RA_OF_ASC_NODE":10.5553,"ARG_OF_PERICENTER":227.8224,"MEAN_ANOMALY":132.2912,"EPHEMERIS_TYPE":0,"CLASSIFICATION_TYPE":"U","NORAD_CAT_ID":37849,"ELEMENT_SET_NO":999,"REV_AT_EPOCH":74436,"BSTAR":8.9047431e-5,"MEAN_MOTION_DOT":1.43e-6,"MEAN_MOTION_DDOT":0},{"OBJECT_NAME":"THOR ABLESTAR DEB","OBJECT_ID":"1961-015BM","EPOCH":"2026-03-09T15:12:22.126752","MEAN_MOTION":14.38261255,"ECCENTRICITY":0.0106649,"INCLINATION":66.7963,"RA_OF_ASC_NODE":150.3493,"ARG_OF_PERICENTER":290.7027,"MEAN_ANOMALY":68.267,"EPHEMERIS_TYPE":0,"CLASSIFICATION_TYPE":"U","NORAD_CAT_ID":225,"ELEMENT_SET_NO":999,"REV_AT_EPOCH":34341,"BSTAR":0.00048442,"MEAN_MOTION_DOT":1.485e-5,"MEAN_MOTION_DDOT":0}]
